[{"OBJECT_NAME":"LYNK TOWER 5","OBJECT_ID":"2024-043Z","EPOCH":"2026-03-09T22:11:51.175104","MEAN_MOTION":15.29454506,"ECCENTRICITY":0.00104056,"INCLINATION":97.5458,"RA_OF_ASC_NODE":204.7305,"ARG_OF_PERICENTER":234.6422,"MEAN_ANOMALY":125.3846,"EPHEMERIS_TYPE":0,"CLASSIFICATION_TYPE":"U","NORAD_CAT_ID":59121,"ELEMENT_SET_NO":999,"REV_AT_EPOCH":11186,"BSTAR":0.00031901545,"MEAN_MOTION_DOT":9.048e-5,"MEAN_MOTION_DDOT":0},{"OBJECT_NAME":"STARLINK-31683","OBJECT_ID":"2024-076K","EPOCH":"2026-03-09T03:55:35.106528","MEAN_MOTION":15.27573131,"ECCENTRICITY":0.00011707,"INCLINATION":43.0049,"RA_OF_ASC_NODE":11.8462,"ARG_OF_PERICENTER":281.5522,"MEAN_ANOMALY":78.5198,"EPHEMERIS_TYPE":0,"CLASSIFICATION_TYPE":"U","NORAD_CAT_ID":59573,"ELEMENT_SET_NO":999,"REV_AT_EPOCH":10642,"BSTAR":-2.0415594e-5,"MEAN_MOTION_DOT":-8.24e-6,"MEAN_MOTION_DDOT":0}]
